[ {"CCSDS_OMM_VERS": "3.0", "COMMENT": "GENERATED VIA SPACE-TRACK.ORG API", "CREATION_DATE": "2019-12-20T22:20:16", "ORIGINATOR": "18 SPCS", "OBJECT_NAME": "OBJECT F", "OBJECT_ID": "2019-092F", "CENTER_NAME": "EARTH", "REF_FRAME": "TEME", "TIME_SYSTEM": "UTC", "MEAN_ELEMENT_THEORY": "SGP4", "EPOCH": "2019-12-20T14:57:31.571712", "MEAN_MOTION": "15.15158198", "ECCENTRICITY": "0.00126170", "INCLINATION": "97.4616", "RA_OF_ASC_NODE": "176.0286", "ARG_OF_PERICENTER": "258.4029", "MEAN_ANOMALY": "101.5811", "EPHEMERIS_TYPE": "0", "CLASSIFICATION_TYPE": "U", "NORAD_CAT_ID": "44878", "ELEMENT_SET_NO": "999", "REV_AT_EPOCH": "30", "BSTAR": "0.00000000000000", "MEAN_MOTION_DOT": "-0.00000066", "MEAN_MOTION_DDOT": "0.0000000000000", "SEMIMAJOR_AXIS": "6898.635", "PERIOD": "95.039", "APOAPSIS": "529.204", "PERIAPSIS": "511.796", "OBJECT_TYPE": "TBA", "RCS_SIZE": null, "COUNTRY_CODE": "TBD", "LAUNCH_DATE": "2019-12-18", "SITE": "FRGUI", "DECAY_DATE": null, "FILE": "2670189", "GP_ID": "145195556", "TLE_LINE0": "0 OBJECT F", "TLE_LINE1": "1 44878U 19092F   19354.62328208 -.00000066  00000-0  00000+0 0  9997", "TLE_LINE2": "2 44878  97.4616 176.0286 0012617 258.4029 101.5811 15.15158198   307"}, {"CCSDS_OMM_VERS": "3.0", "COMMENT": "GENERATED VIA SPACE-TRACK.ORG API", "CREATION_DATE": "2019-12-22T05:26:48", "ORIGINATOR": "18 SPCS", "OBJECT_NAME": "OBJECT F", "OBJECT_ID": "2019-092F", "CENTER_NAME": "EARTH", "REF_FRAME": "TEME", "TIME_SYSTEM": "UTC", "MEAN_ELEMENT_THEORY": "SGP4", "EPOCH": "2019-12-21T13:08:55.561920", "MEAN_MOTION": "15.15158485", "ECCENTRICITY": "0.00126430", "INCLINATION": "97.4617", "RA_OF_ASC_NODE": "176.9361", "ARG_OF_PERICENTER": "255.0080", "MEAN_ANOMALY": "104.9778", "EPHEMERIS_TYPE": "0", "CLASSIFICATION_TYPE": "U", "NORAD_CAT_ID": "44878", "ELEMENT_SET_NO": "999", "REV_AT_EPOCH": "44", "BSTAR": "0.00000000000000", "MEAN_MOTION_DOT": "-0.00000066", "MEAN_MOTION_DDOT": "0.0000000000000", "SEMIMAJOR_AXIS": "6898.634", "PERIOD": "95.039", "APOAPSIS": "529.221", "PERIAPSIS": "511.777", "OBJECT_TYPE": "TBA", "RCS_SIZE": "SMALL", "COUNTRY_CODE": "TBD", "LAUNCH_DATE": "2019-12-18", "SITE": "FRGUI", "DECAY_DATE": null, "FILE": "2670938", "GP_ID": "145269958", "TLE_LINE0": "0 OBJECT F", "TLE_LINE1": "1 44878U 19092F   19355.54786530 -.00000066 +00000-0 +00000-0 0  9996", "TLE_LINE2": "2 44878 097.4617 176.9361 0012643 255.0080 104.9778 15.15158485000443"}, {"CCSDS_OMM_VERS": "3.0", "COMMENT": "GENERATED VIA SPACE-TRACK.ORG API", "CREATION_DATE": "2019-12-22T06:20:16", "ORIGINATOR": "18 SPCS", "OBJECT_NAME": "OBJECT F", "OBJECT_ID": "2019-092F", "CENTER_NAME": "EARTH", "REF_FRAME": "TEME", "TIME_SYSTEM": "UTC", "MEAN_ELEMENT_THEORY": "SGP4", "EPOCH": "2019-12-22T01:49:43.534848", "MEAN_MOTION": "15.15158452", "ECCENTRICITY": "0.00126480", "INCLINATION": "97.4616", "RA_OF_ASC_NODE": "177.4546", "ARG_OF_PERICENTER": "253.1624", "MEAN_ANOMALY": "106.8220", "EPHEMERIS_TYPE": "0", "CLASSIFICATION_TYPE": "U", "NORAD_CAT_ID": "44878", "ELEMENT_SET_NO": "999", "REV_AT_EPOCH": "52", "BSTAR": "0.00000000000000", "MEAN_MOTION_DOT": "-0.00000066", "MEAN_MOTION_DDOT": "0.0000000000000", "SEMIMAJOR_AXIS": "6898.634", "PERIOD": "95.039", "APOAPSIS": "529.224", "PERIAPSIS": "511.774", "OBJECT_TYPE": "TBA", "RCS_SIZE": "SMALL", "COUNTRY_CODE": "TBD", "LAUNCH_DATE": "2019-12-18", "SITE": "FRGUI", "DECAY_DATE": null, "FILE": "2670952", "GP_ID": "145270246", "TLE_LINE0": "0 OBJECT F", "TLE_LINE1": "1 44878U 19092F   19356.07619832 -.00000066  00000-0  00000+0 0  9994", "TLE_LINE2": "2 44878  97.4616 177.4546 0012648 253.1624 106.8220 15.15158452   527"}, {"CCSDS_OMM_VERS": "3.0", "COMMENT": "GENERATED VIA SPACE-TRACK.ORG API", "CREATION_DATE": "2019-12-23T03:55:13", "ORIGINATOR": "18 SPCS", "OBJECT_NAME": "OBJECT F", "OBJECT_ID": "2019-092F", "CENTER_NAME": "EARTH", "REF_FRAME": "TEME", "TIME_SYSTEM": "UTC", "MEAN_ELEMENT_THEORY": "SGP4", "EPOCH": "2019-12-22T12:55:25.540320", "MEAN_MOTION": "15.15158895", "ECCENTRICITY": "0.00126430", "INCLINATION": "97.4617", "RA_OF_ASC_NODE": "177.9087", "ARG_OF_PERICENTER": "251.5273", "MEAN_ANOMALY": "108.4623", "EPHEMERIS_TYPE": "0", "CLASSIFICATION_TYPE": "U", "NORAD_CAT_ID": "44878", "ELEMENT_SET_NO": "999", "REV_AT_EPOCH": "59", "BSTAR": "0.00000000000000", "MEAN_MOTION_DOT": "-0.00000066", "MEAN_MOTION_DDOT": "0.0000000000000", "SEMIMAJOR_AXIS": "6898.633", "PERIOD": "95.039", "APOAPSIS": "529.220", "PERIAPSIS": "511.776", "OBJECT_TYPE": "TBA", "RCS_SIZE": "SMALL", "COUNTRY_CODE": "TBD", "LAUNCH_DATE": "2019-12-18", "SITE": "FRGUI", "DECAY_DATE": null, "FILE": "2671486", "GP_ID": "145320684", "TLE_LINE0": "0 OBJECT F", "TLE_LINE1": "1 44878U 19092F   19356.53849005 -.00000066 +00000-0 +00000-0 0  9993", "TLE_LINE2": "2 44878 097.4617 177.9087 0012643 251.5273 108.4623 15.15158895000593"}, {"CCSDS_OMM_VERS": "3.0", "COMMENT": "GENERATED VIA SPACE-TRACK.ORG API", "CREATION_DATE": "2019-12-23T14:20:17", "ORIGINATOR": "18 SPCS", "OBJECT_NAME": "OBJECT F", "OBJECT_ID": "2019-092F", "CENTER_NAME": "EARTH", "REF_FRAME": "TEME", "TIME_SYSTEM": "UTC", "MEAN_ELEMENT_THEORY": "SGP4", "EPOCH": "2019-12-23T09:31:43.473216", "MEAN_MOTION": "15.15159200", "ECCENTRICITY": "0.00126210", "INCLINATION": "97.4614", "RA_OF_ASC_NODE": "178.7514", "ARG_OF_PERICENTER": "248.1490", "MEAN_ANOMALY": "111.8431", "EPHEMERIS_TYPE": "0", "CLASSIFICATION_TYPE": "U", "NORAD_CAT_ID": "44878", "ELEMENT_SET_NO": "999", "REV_AT_EPOCH": "72", "BSTAR": "0.00000000000000", "MEAN_MOTION_DOT": "-0.00000066", "MEAN_MOTION_DDOT": "0.0000000000000", "SEMIMAJOR_AXIS": "6898.632", "PERIOD": "95.039", "APOAPSIS": "529.204", "PERIAPSIS": "511.790", "OBJECT_TYPE": "TBA", "RCS_SIZE": "SMALL", "COUNTRY_CODE": "TBD", "LAUNCH_DATE": "2019-12-18", "SITE": "FRGUI", "DECAY_DATE": null, "FILE": "2671697", "GP_ID": "145325183", "TLE_LINE0": "0 OBJECT F", "TLE_LINE1": "1 44878U 19092F   19357.39703094 -.00000066  00000-0  00000+0 0  9994", "TLE_LINE2": "2 44878  97.4614 178.7514 0012621 248.1490 111.8431 15.15159200   724"}, {"CCSDS_OMM_VERS": "3.0", "COMMENT": "GENERATED VIA SPACE-TRACK.ORG API", "CREATION_DATE": "2019-12-24T03:42:42", "ORIGINATOR": "18 SPCS", "OBJECT_NAME": "OBJECT F", "OBJECT_ID": "2019-092F", "CENTER_NAME": "EARTH", "REF_FRAME": "TEME", "TIME_SYSTEM": "UTC", "MEAN_ELEMENT_THEORY": "SGP4", "EPOCH": "2019-12-23T12:41:55.423680", "MEAN_MOTION": "15.15159390", "ECCENTRICITY": "0.00126260", "INCLINATION": "97.4615", "RA_OF_ASC_NODE": "178.8810", "ARG_OF_PERICENTER": "247.7284", "MEAN_ANOMALY": "112.2636", "EPHEMERIS_TYPE": "0", "CLASSIFICATION_TYPE": "U", "NORAD_CAT_ID": "44878", "ELEMENT_SET_NO": "999", "REV_AT_EPOCH": "74", "BSTAR": "0.00000000000000", "MEAN_MOTION_DOT": "-0.00000066", "MEAN_MOTION_DDOT": "0.0000000000000", "SEMIMAJOR_AXIS": "6898.631", "PERIOD": "95.039", "APOAPSIS": "529.206", "PERIAPSIS": "511.786", "OBJECT_TYPE": "TBA", "RCS_SIZE": "SMALL", "COUNTRY_CODE": "TBD", "LAUNCH_DATE": "2019-12-18", "SITE": "FRGUI", "DECAY_DATE": null, "FILE": "2672091", "GP_ID": "145392202", "TLE_LINE0": "0 OBJECT F", "TLE_LINE1": "1 44878U 19092F   19357.52911370 -.00000066 +00000-0 +00000-0 0  9998", "TLE_LINE2": "2 44878 097.4615 178.8810 0012626 247.7284 112.2636 15.15159390000740"}, {"CCSDS_OMM_VERS": "3.0", "COMMENT": "GENERATED VIA SPACE-TRACK.ORG API", "CREATION_DATE": "2019-12-24T22:20:16", "ORIGINATOR": "18 SPCS", "OBJECT_NAME": "OBJECT F", "OBJECT_ID": "2019-092F", "CENTER_NAME": "EARTH", "REF_FRAME": "TEME", "TIME_SYSTEM": "UTC", "MEAN_ELEMENT_THEORY": "SGP4", "EPOCH": "2019-12-24T10:53:19.212576", "MEAN_MOTION": "15.15160222", "ECCENTRICITY": "0.00126540", "INCLINATION": "97.4610", "RA_OF_ASC_NODE": "179.7886", "ARG_OF_PERICENTER": "243.2186", "MEAN_ANOMALY": "116.7774", "EPHEMERIS_TYPE": "0", "CLASSIFICATION_TYPE": "U", "NORAD_CAT_ID": "44878", "ELEMENT_SET_NO": "999", "REV_AT_EPOCH": "88", "BSTAR": "0.00000000000000", "MEAN_MOTION_DOT": "-0.00000066", "MEAN_MOTION_DDOT": "0.0000000000000", "SEMIMAJOR_AXIS": "6898.629", "PERIOD": "95.039", "APOAPSIS": "529.223", "PERIAPSIS": "511.764", "OBJECT_TYPE": "TBA", "RCS_SIZE": "SMALL", "COUNTRY_CODE": "TBD", "LAUNCH_DATE": "2019-12-18", "SITE": "FRGUI", "DECAY_DATE": null, "FILE": "2672475", "GP_ID": "145420405", "TLE_LINE0": "0 OBJECT F", "TLE_LINE1": "1 44878U 19092F   19358.45369459 -.00000066  00000-0  00000+0 0  9995", "TLE_LINE2": "2 44878  97.4610 179.7886 0012654 243.2186 116.7774 15.15160222   884"}, {"CCSDS_OMM_VERS": "3.0", "COMMENT": "GENERATED VIA SPACE-TRACK.ORG API", "CREATION_DATE": "2019-12-25T22:20:16", "ORIGINATOR": "18 SPCS", "OBJECT_NAME": "OBJECT F", "OBJECT_ID": "2019-092F", "CENTER_NAME": "EARTH", "REF_FRAME": "TEME", "TIME_SYSTEM": "UTC", "MEAN_ELEMENT_THEORY": "SGP4", "EPOCH": "2019-12-25T13:50:00.547872", "MEAN_MOTION": "15.15163076", "ECCENTRICITY": "0.00134160", "INCLINATION": "97.4602", "RA_OF_ASC_NODE": "180.8903", "ARG_OF_PERICENTER": "241.0820", "MEAN_ANOMALY": "118.9141", "EPHEMERIS_TYPE": "0", "CLASSIFICATION_TYPE": "U", "NORAD_CAT_ID": "44878", "ELEMENT_SET_NO": "999", "REV_AT_EPOCH": "105", "BSTAR": "0.00000000000000", "MEAN_MOTION_DOT": "-0.00000066", "MEAN_MOTION_DDOT": "0.0000000000000", "SEMIMAJOR_AXIS": "6898.620", "PERIOD": "95.039", "APOAPSIS": "529.740", "PERIAPSIS": "511.230", "OBJECT_TYPE": "TBA", "RCS_SIZE": "SMALL", "COUNTRY_CODE": "TBD", "LAUNCH_DATE": "2019-12-18", "SITE": "FRGUI", "DECAY_DATE": null, "FILE": "2673025", "GP_ID": "145471230", "TLE_LINE0": "0 OBJECT F", "TLE_LINE1": "1 44878U 19092F   19359.57639523 -.00000066  00000-0  00000+0 0  9991", "TLE_LINE2": "2 44878  97.4602 180.8903 0013416 241.0820 118.9141 15.15163076  1058"}]